INTELSAT 10 (IS-10)     
1 26766U 01019A   26063.89462591 -.00000291  00000+0  00000+0 0  9990
2 26766   8.8270  60.3151 0005957 266.6850 298.7324  0.99041872 44541
INTELSAT 902 (IS-902)   
1 26900U 01039A   26063.34350089 -.00000292  00000+0  00000+0 0  9991
2 26900   5.8522  73.0613 0004553 272.5991 249.9991  1.00272825 89640
INTELSAT 904 (IS-904)   
1 27380U 02007A   26063.33239102 -.00000234  00000+0  00000+0 0  9997
2 27380   6.6586  70.4418 0006117 305.6990 234.1072  1.00273296 50716
DIRECTV 5 (TEMPO 1)     
1 27426U 02023A   26064.07961664 -.00000064  00000+0  00000+0 0  9994
2 27426   4.6122  76.6118 0003621 276.7055  88.0578  1.00272420 87088
INTELSAT 905 (IS-905)   
1 27438U 02027A   26064.18725306  .00000088  00000+0  00000+0 0  9999
2 27438   6.4927  71.0512 0003173 279.5390 102.5539  1.00273968 50320
GALAXY 3C (G-3C)        
1 27445U 02030A   26064.20783702 -.00000160  00000+0  00000+0 0  9990
2 27445   3.4665  79.4508 0001101  24.1752  39.2977  1.00271628 45457
INTELSAT 906 (IS-906)   
1 27513U 02041A   26064.18725389  .00000006  00000+0  00000+0 0  9990
2 27513   5.5382  74.2005 0003228 258.7699 321.5210  1.00272916 85984
GALAXY 13 (HORIZONS-1)  
1 27954U 03044A   26064.26824397  .00000125  00000+0  00000+0 0  9993
2 27954   1.1491  85.2834 0002183 262.0517 122.2241  1.00272960 45530
INTELSAT 10-02          
1 28358U 04022A   26064.22647045 -.00000020  00000+0  00000+0 0  9993
2 28358   0.0180 121.3321 0001309 262.4473 219.6948  1.00272386 79511
DIRECTV 8               
1 28659U 05019A   26064.20307034 -.00000007  00000+0  00000+0 0  9998
2 28659   0.0122 118.5895 0003316 240.0936 118.3000  1.00272868 76034
GALAXY 28 (G-28)        
1 28702U 05022A   26064.22127042 -.00000208  00000+0  00000+0 0  9995
2 28702   3.0302  80.2386 0002288 265.6191 229.6685  1.00271813 50934
GALAXY 16 (G-16)        
1 29236U 06023A   26064.20705701 -.00000135  00000+0  00000+0 0  9991
2 29236   0.0424 232.7228 0002542 115.0303 150.7068  1.00272852 71930
DIRECTV 9S              
1 29494U 06043A   26064.20662368 -.00000121  00000+0  00000+0 0  9995
2 29494   2.1525  82.1917 0003170 270.5730 143.3505  1.00272317 50344
GALAXY 17 (G-17)        
1 31307U 07016B   26064.20983036 -.00000214  00000+0  00000+0 0  9993
2 31307   2.7087  81.2304 0003332 266.0102 166.2424  1.00271958 68761
DIRECTV 10              
1 31862U 07032A   26064.23531050 -.00000030  00000+0  00000+0 0  9991
2 31862   0.1340 100.6284 0006640 274.1552 276.7672  0.98337207 44546
INTELSAT 11 (IS-11)     
1 32253U 07044B   26064.27075732  .00000055  00000+0  00000+0 0  9999
2 32253   3.2948  79.9497 0005025 206.2183 196.9975  0.99049289 67427
HORIZONS-2              
1 32388U 07063B   26064.06942973 -.00000262  00000+0  00000+0 0  9997
2 32388   2.3337  81.9452 0002808 258.1305 133.9283  1.00271542 66772
