[{"OBJECT_NAME":"INTELSAT 10 (IS-10)","OBJECT_ID":"2001-019A","EPOCH":"2026-03-04T21:28:15.678624","MEAN_MOTION":0.99041872,"ECCENTRICITY":0.00059573,"INCLINATION":8.827,"RA_OF_ASC_NODE":60.3151,"ARG_OF_PERICENTER":266.685,"MEAN_ANOMALY":298.7324,"EPHEMERIS_TYPE":0,"CLASSIFICATION_TYPE":"U","NORAD_CAT_ID":26766,"ELEMENT_SET_NO":999,"REV_AT_EPOCH":4454,"BSTAR":0,"MEAN_MOTION_DOT":-2.91e-6,"MEAN_MOTION_DDOT":0},{"OBJECT_NAME":"INTELSAT 902 (IS-902)","OBJECT_ID":"2001-039A","EPOCH":"2026-03-04T08:14:38.476896","MEAN_MOTION":1.00272825,"ECCENTRICITY":0.00045534,"INCLINATION":5.8522,"RA_OF_ASC_NODE":73.0613,"ARG_OF_PERICENTER":272.5991,"MEAN_ANOMALY":249.9991,"EPHEMERIS_TYPE":0,"CLASSIFICATION_TYPE":"U","NORAD_CAT_ID":26900,"ELEMENT_SET_NO":999,"REV_AT_EPOCH":8964,"BSTAR":0,"MEAN_MOTION_DOT":-2.92e-6,"MEAN_MOTION_DDOT":0},{"OBJECT_NAME":"INTELSAT 904 (IS-904)","OBJECT_ID":"2002-007A","EPOCH":"2026-03-04T07:58:38.584128","MEAN_MOTION":1.00273296,"ECCENTRICITY":0.00061171,"INCLINATION":6.6586,"RA_OF_ASC_NODE":70.4418,"ARG_OF_PERICENTER":305.699,"MEAN_ANOMALY":234.1072,"EPHEMERIS_TYPE":0,"CLASSIFICATION_TYPE":"U","NORAD_CAT_ID":27380,"ELEMENT_SET_NO":999,"REV_AT_EPOCH":5071,"BSTAR":0,"MEAN_MOTION_DOT":-2.34e-6,"MEAN_MOTION_DDOT":0},{"OBJECT_NAME":"DIRECTV 5 (TEMPO 1)","OBJECT_ID":"2002-023A","EPOCH":"2026-03-05T01:54:38.877696","MEAN_MOTION":1.0027242,"ECCENTRICITY":0.00036216,"INCLINATION":4.6122,"RA_OF_ASC_NODE":76.6118,"ARG_OF_PERICENTER":276.7055,"MEAN_ANOMALY":88.0578,"EPHEMERIS_TYPE":0,"CLASSIFICATION_TYPE":"U","NORAD_CAT_ID":27426,"ELEMENT_SET_NO":999,"REV_AT_EPOCH":8708,"BSTAR":0,"MEAN_MOTION_DOT":-6.4e-7,"MEAN_MOTION_DDOT":0},{"OBJECT_NAME":"INTELSAT 905 (IS-905)","OBJECT_ID":"2002-027A","EPOCH":"2026-03-05T04:29:38.664384","MEAN_MOTION":1.00273968,"ECCENTRICITY":0.00031737,"INCLINATION":6.4927,"RA_OF_ASC_NODE":71.0512,"ARG_OF_PERICENTER":279.539,"MEAN_ANOMALY":102.5539,"EPHEMERIS_TYPE":0,"CLASSIFICATION_TYPE":"U","NORAD_CAT_ID":27438,"ELEMENT_SET_NO":999,"REV_AT_EPOCH":5032,"BSTAR":0,"MEAN_MOTION_DOT":8.8e-7,"MEAN_MOTION_DDOT":0},{"OBJECT_NAME":"GALAXY 3C (G-3C)","OBJECT_ID":"2002-030A","EPOCH":"2026-03-05T04:59:17.118528","MEAN_MOTION":1.00271628,"ECCENTRICITY":0.00011018,"INCLINATION":3.4665,"RA_OF_ASC_NODE":79.4508,"ARG_OF_PERICENTER":24.1752,"MEAN_ANOMALY":39.2977,"EPHEMERIS_TYPE":0,"CLASSIFICATION_TYPE":"U","NORAD_CAT_ID":27445,"ELEMENT_SET_NO":999,"REV_AT_EPOCH":4545,"BSTAR":0,"MEAN_MOTION_DOT":-1.6e-6,"MEAN_MOTION_DDOT":0},{"OBJECT_NAME":"INTELSAT 906 (IS-906)","OBJECT_ID":"2002-041A","EPOCH":"2026-03-05T04:29:38.736096","MEAN_MOTION":1.00272916,"ECCENTRICITY":0.0003228,"INCLINATION":5.5382,"RA_OF_ASC_NODE":74.2005,"ARG_OF_PERICENTER":258.7699,"MEAN_ANOMALY":321.521,"EPHEMERIS_TYPE":0,"CLASSIFICATION_TYPE":"U","NORAD_CAT_ID":27513,"ELEMENT_SET_NO":999,"REV_AT_EPOCH":8598,"BSTAR":0,"MEAN_MOTION_DOT":6.0e-8,"MEAN_MOTION_DDOT":0},{"OBJECT_NAME":"GALAXY 13 (HORIZONS-1)","OBJECT_ID":"2003-044A","EPOCH":"2026-03-05T06:26:16.279008","MEAN_MOTION":1.0027296,"ECCENTRICITY":0.00021833,"INCLINATION":1.1491,"RA_OF_ASC_NODE":85.2834,"ARG_OF_PERICENTER":262.0517,"MEAN_ANOMALY":122.2241,"EPHEMERIS_TYPE":0,"CLASSIFICATION_TYPE":"U","NORAD_CAT_ID":27954,"ELEMENT_SET_NO":999,"REV_AT_EPOCH":4553,"BSTAR":0,"MEAN_MOTION_DOT":1.25e-6,"MEAN_MOTION_DDOT":0},{"OBJECT_NAME":"INTELSAT 10-02","OBJECT_ID":"2004-022A","EPOCH":"2026-03-05T05:26:07.046880","MEAN_MOTION":1.00272386,"ECCENTRICITY":0.00013091,"INCLINATION":0.018,"RA_OF_ASC_NODE":121.3321,"ARG_OF_PERICENTER":262.4473,"MEAN_ANOMALY":219.6948,"EPHEMERIS_TYPE":0,"CLASSIFICATION_TYPE":"U","NORAD_CAT_ID":28358,"ELEMENT_SET_NO":999,"REV_AT_EPOCH":7951,"BSTAR":0,"MEAN_MOTION_DOT":-2.0e-7,"MEAN_MOTION_DDOT":0},{"OBJECT_NAME":"DIRECTV 8","OBJECT_ID":"2005-019A","EPOCH":"2026-03-05T04:52:25.277376","MEAN_MOTION":1.00272868,"ECCENTRICITY":0.0003316,"INCLINATION":0.0122,"RA_OF_ASC_NODE":118.5895,"ARG_OF_PERICENTER":240.0936,"MEAN_ANOMALY":118.3,"EPHEMERIS_TYPE":0,"CLASSIFICATION_TYPE":"U","NORAD_CAT_ID":28659,"ELEMENT_SET_NO":999,"REV_AT_EPOCH":7603,"BSTAR":0,"MEAN_MOTION_DOT":-7.0e-8,"MEAN_MOTION_DDOT":0},{"OBJECT_NAME":"GALAXY 28 (G-28)","OBJECT_ID":"2005-022A","EPOCH":"2026-03-05T05:18:37.764288","MEAN_MOTION":1.00271813,"ECCENTRICITY":0.00022885,"INCLINATION":3.0302,"RA_OF_ASC_NODE":80.2386,"ARG_OF_PERICENTER":265.6191,"MEAN_ANOMALY":229.6685,"EPHEMERIS_TYPE":0,"CLASSIFICATION_TYPE":"U","NORAD_CAT_ID":28702,"ELEMENT_SET_NO":999,"REV_AT_EPOCH":5093,"BSTAR":0,"MEAN_MOTION_DOT":-2.08e-6,"MEAN_MOTION_DDOT":0},{"OBJECT_NAME":"GALAXY 16 (G-16)","OBJECT_ID":"2006-023A","EPOCH":"2026-03-05T04:58:09.725664","MEAN_MOTION":1.00272852,"ECCENTRICITY":0.00025421,"INCLINATION":0.0424,"RA_OF_ASC_NODE":232.7228,"ARG_OF_PERICENTER":115.0303,"MEAN_ANOMALY":150.7068,"EPHEMERIS_TYPE":0,"CLASSIFICATION_TYPE":"U","NORAD_CAT_ID":29236,"ELEMENT_SET_NO":999,"REV_AT_EPOCH":7193,"BSTAR":0,"MEAN_MOTION_DOT":-1.35e-6,"MEAN_MOTION_DDOT":0},{"OBJECT_NAME":"DIRECTV 9S","OBJECT_ID":"2006-043A","EPOCH":"2026-03-05T04:57:32.285952","MEAN_MOTION":1.00272317,"ECCENTRICITY":0.00031701,"INCLINATION":2.1525,"RA_OF_ASC_NODE":82.1917,"ARG_OF_PERICENTER":270.573,"MEAN_ANOMALY":143.3505,"EPHEMERIS_TYPE":0,"CLASSIFICATION_TYPE":"U","NORAD_CAT_ID":29494,"ELEMENT_SET_NO":999,"REV_AT_EPOCH":5034,"BSTAR":0,"MEAN_MOTION_DOT":-1.21e-6,"MEAN_MOTION_DDOT":0},{"OBJECT_NAME":"GALAXY 17 (G-17)","OBJECT_ID":"2007-016B","EPOCH":"2026-03-05T05:02:09.343104","MEAN_MOTION":1.00271958,"ECCENTRICITY":0.00033329,"INCLINATION":2.7087,"RA_OF_ASC_NODE":81.2304,"ARG_OF_PERICENTER":266.0102,"MEAN_ANOMALY":166.2424,"EPHEMERIS_TYPE":0,"CLASSIFICATION_TYPE":"U","NORAD_CAT_ID":31307,"ELEMENT_SET_NO":999,"REV_AT_EPOCH":6876,"BSTAR":0,"MEAN_MOTION_DOT":-2.14e-6,"MEAN_MOTION_DDOT":0},{"OBJECT_NAME":"DIRECTV 10","OBJECT_ID":"2007-032A","EPOCH":"2026-03-05T05:38:50.827200","MEAN_MOTION":0.98337207,"ECCENTRICITY":0.00066407,"INCLINATION":0.134,"RA_OF_ASC_NODE":100.6284,"ARG_OF_PERICENTER":274.1552,"MEAN_ANOMALY":276.7672,"EPHEMERIS_TYPE":0,"CLASSIFICATION_TYPE":"U","NORAD_CAT_ID":31862,"ELEMENT_SET_NO":999,"REV_AT_EPOCH":4454,"BSTAR":0,"MEAN_MOTION_DOT":-3.0e-7,"MEAN_MOTION_DDOT":0},{"OBJECT_NAME":"INTELSAT 11 (IS-11)","OBJECT_ID":"2007-044B","EPOCH":"2026-03-05T06:29:53.432448","MEAN_MOTION":0.99049289,"ECCENTRICITY":0.00050255,"INCLINATION":3.2948,"RA_OF_ASC_NODE":79.9497,"ARG_OF_PERICENTER":206.2183,"MEAN_ANOMALY":196.9975,"EPHEMERIS_TYPE":0,"CLASSIFICATION_TYPE":"U","NORAD_CAT_ID":32253,"ELEMENT_SET_NO":999,"REV_AT_EPOCH":6742,"BSTAR":0,"MEAN_MOTION_DOT":5.5e-7,"MEAN_MOTION_DDOT":0},{"OBJECT_NAME":"HORIZONS-2","OBJECT_ID":"2007-063B","EPOCH":"2026-03-05T01:39:58.728672","MEAN_MOTION":1.00271542,"ECCENTRICITY":0.00028086,"INCLINATION":2.3337,"RA_OF_ASC_NODE":81.9452,"ARG_OF_PERICENTER":258.1305,"MEAN_ANOMALY":133.9283,"EPHEMERIS_TYPE":0,"CLASSIFICATION_TYPE":"U","NORAD_CAT_ID":32388,"ELEMENT_SET_NO":999,"REV_AT_EPOCH":6677,"BSTAR":0,"MEAN_MOTION_DOT":-2.62e-6,"MEAN_MOTION_DDOT":0}]
